JCAT , SatcatLaunch_Tag Piece     , Type     , Name                        , PLName                      , LDate      , Parent      , SDate              , Primary, DDate              , Status Dest   , Owner       , State , Manufacturer, Bus              , Motor       , Mass     , DryMass   , TotMass  , Length, Diamete, Span   , Shape                    , ODate      , Perigee, Apogee, Inc   , OpOrbitOQU AltNames, STATUS, OBJECT_NAME             , OBJECT_ID , EPOCH                     , MEAN_MOTION, ECCENTRICITY, INCLINATION, RA_OF_ASC_NODE, ARG_OF_PERICENTER, MEAN_ANOMALY, EPHEMERIS_TYPE, CLASSIFICATION_TYPE, NORAD_CAT_ID, ELEMENT_SET_NO, REV_AT_EPOCH, BSTAR         , MEAN_MOTION_DOT, MEAN_MOTION_DDOT, LAST_UPDATED       , DATA_SOURCE               , TLE_LINE1                                                            , TLE_LINE2                                                            , N2YO_SAT_NAME              , TLE_FETCHED
42835, 42835 2017-042   2017-042L , P        , WNISAT-1R                   , WNISAT-1R                   , 2017 Jul 14, A08661      , 2017 Jul 14 0902?  , Earth  , -                  , O      -      , WNI         , J     , AXEL        , Hodoyoshi        , -           , 40       , 40        , 40       , 0.5   , 0.5    , 1.5    , Box+ 2 pan               , 2017 Jul 16, 586    , 606   , 97.61 , LLEO/S -           , ACTIVE, WNISAT 1R               , 2017-042L , 2025-10-03T09:48:52.492896, 14.99753267, 0.00077217  ,     97.4198,        78.3062,          282.124 ,      77.9119,            0.0, U                  ,      42835.0,          999.0,      44799.0, 0.00062200434 , 7.638e-05      , 0.0             , 2025-10-04 23:19:22, planet4589.org + Celestrak, 1 42835U 17042L   25276.40894089  .00007638  00000-0  62200-3 0  9997, 2 42835  97.4198  78.3062 0007722 282.1240  77.9119 14.99753267447995, WNISAT 1R                  , YES
42837, 42837 2017-042   2017-042N , P        , Lemur-2-Greenberg           , Lemur FM43                  , 2017 Jul 14, A08661      , 2017 Jul 14 0926?  , Earth  , -                  , O      -      , SPIRE       , US    , SPIREG      , Cubesat 3U       , -           , 4        , 4         , 4        , 0.3   , 0.1    , 0.3    , Box                      , 2017 Jul 16, 585    , 602   , 97.61 , LLEO/S -           , ACTIVE, LEMUR-2-GREENBERG       , 2017-042N , 2025-10-03T11:22:54.701472, 15.21350679, 0.00104263  ,     97.3722,        95.2539,          186.2572,     173.8536,            0.0, U                  ,      42837.0,          999.0,      44922.0, 0.0014130236  , 0.0003174      , 0.0             , 2025-10-04 23:19:22, planet4589.org + Celestrak, 1 42837U 17042N   25276.47424423  .00031740  00000-0  14130-2 0  9996, 2 42837  97.3722  95.2539 0010426 186.2572 173.8536 15.21350679449226, LEMUR 2 GREENBERG          , YES
42838, 42838 2017-042   2017-042P , P        , Lemur-2-AndiS               , Lemur FM44                  , 2017 Jul 14, A08661      , 2017 Jul 14 0926?  , Earth  , -                  , O      -      , SPIRE       , US    , SPIREG      , Cubesat 3U       , -           , 4        , 4         , 4        , 0.3   , 0.1    , 0.3    , Box                      , 2017 Jul 16, 586    , 598   , 97.61 , LLEO/S -           , ACTIVE, LEMUR-2-ANDIS           , 2017-042P , 2025-10-03T13:32:11.948352, 15.22548723, 0.00108664  ,     97.3647,        95.0147,          192.3027,     167.7946,            0.0, U                  ,      42838.0,          999.0,      44924.0, 0.0013070926  , 0.00030405     , 0.0             , 2025-10-04 23:19:22, planet4589.org + Celestrak, 1 42838U 17042P   25277.48411289  .00028485  00000-0  12231-2 0  9997, 2 42838  97.3642  95.9162 0010907 188.8621 171.2425 15.22601357449383, LEMUR 2 ANDIS              , YES
42839, 42839 2017-042   2017-042Q , P        , Lemur-2-Monson              , Lemur FM45                  , 2017 Jul 14, A08661      , 2017 Jul 14 0926?  , Earth  , -                  , O      -      , SPIRE       , US    , SPIREG      , Cubesat 3U       , -           , 4        , 4         , 4        , 0.3   , 0.1    , 0.3    , Box                      , 2017 Jul 16, 585    , 601   , 97.61 , LLEO/S -           , ACTIVE, LEMUR-2-MONSON          , 2017-042Q , 2025-10-03T10:57:29.369952, 15.18960238, 0.00079051  ,     97.3992,        95.4338,          173.2745,     186.8597,            0.0, U                  ,      42839.0,          999.0,      44907.0, 0.0016299727  , 0.00034158     , 0.0             , 2025-10-04 23:19:22, planet4589.org + Celestrak, 1 42839U 17042Q   25276.45658993  .00034158  00000-0  16300-2 0  9994, 2 42839  97.3992  95.4338 0007905 173.2745 186.8597 15.18960238449070, LEMUR 2 MONSON             , YES
42840, 42840 2017-042   2017-042R , P        , Lemur-2-Furiaus             , Lemur FM46                  , 2017 Jul 14, A08661      , 2017 Jul 14 0926?  , Earth  , -                  , O      -      , SPIRE       , US    , SPIREG      , Cubesat 3U       , -           , 4        , 4         , 4        , 0.3   , 0.1    , 0.3    , Box                      , 2017 Jul 16, 584    , 601   , 97.61 , LLEO/S -           , ACTIVE, LEMUR-2-FURIAUS         , 2017-042R , 2025-10-03T13:27:43.747200, 15.19460157, 0.00081673  ,     97.3719,        94.0636,          245.8582,     114.1799,            0.0, U                  ,      42840.0,          999.0,      44910.0, 0.0011243774  , 0.00023852     , 0.0             , 2025-10-04 23:19:22, planet4589.org + Celestrak, 1 42840U 17042R   25277.48288164  .00019883  00000-0  93729-3 0  9998, 2 42840  97.3716  94.9638 0008176 241.9750 118.0658 15.19496058449242, LEMUR 2 FURIAUS            , YES
